{"type": "FeatureCollection", "features": [ {"type": "Feature", "properties": {"norad_id": 31674, "name": "FENGYUN 1C DEB", "group": "fengyun-1c-debris", "lat": -20.795363811209615, "lon": 24.846094783083153, "alt_km": 713.6569365544437, "timestamp": "2025-12-11T05:00:26.592367+00:00", "meta": {"OBJECT_NAME": "FENGYUN 1C DEB", "OBJECT_ID": "1999-025CCG", "EPOCH": "2025-12-09T20:01:21.040320", "MEAN_MOTION": 14.51775826, "ECCENTRICITY": 0.00242552, "INCLINATION": 98.9267, "RA_OF_ASC_NODE": 19.9647, "ARG_OF_PERICENTER": 293.913, "MEAN_ANOMALY": 65.9523, "EPHEMERIS_TYPE": 0, "CLASSIFICATION_TYPE": "U", "NORAD_CAT_ID": 31674, "ELEMENT_SET_NO": 999, "REV_AT_EPOCH": 64572, "BSTAR": 0.004451265, "MEAN_MOTION_DOT": 0.0001796, "MEAN_MOTION_DDOT": 0}, "tle": {"line1": "1 31674U 99025CCG 25343.83427130  .00017960  00000+0  44513-2 0  9992", "line2": "2 31674  98.9267  19.9647 0024255 293.9130  65.9523 14.51775826645725"}}, "geometry": {"type": "Point", "coordinates": [24.846094783083153, -20.795363811209615]}}, {"type": "Feature", "properties": {"norad_id": 31678, "name": "FENGYUN 1C DEB", "group": "fengyun-1c-debris", "lat": -70.52743445915601, "lon": 120.2943355337242, "alt_km": 765.9511534832282, "timestamp": "2025-12-11T05:00:26.592377+00:00", "meta": {"OBJECT_NAME": "FENGYUN 1C DEB", "OBJECT_ID": "1999-025CCL", "EPOCH": "2025-12-07T13:45:05.550624", "MEAN_MOTION": 14.53109934, "ECCENTRICITY": 0.02595985, "INCLINATION": 98.8002, "RA_OF_ASC_NODE": 90.4904, "ARG_OF_PERICENTER": 43.5795, "MEAN_ANOMALY": 318.5589, "EPHEMERIS_TYPE": 0, "CLASSIFICATION_TYPE": "U", "NORAD_CAT_ID": 31678, "ELEMENT_SET_NO": 999, "REV_AT_EPOCH": 96764, "BSTAR": 0.0013282035, "MEAN_MOTION_DOT": 8.539e-05, "MEAN_MOTION_DDOT": 0}, "tle": {"line1": "1 31678U 99025CCL 25341.57298091  .00008539  00000+0  13282-2 0  9998", "line2": "2 31678  98.8002  90.4904 0259598  43.5795 318.5589 14.53109934967641"}}, "geometry": {"type": "Point", "coordinates": [120.2943355337242, -70.52743445915601]}}, {"type": "Feature", "properties": {"norad_id": 31680, "name": "FENGYUN 1C DEB", "group": "fengyun-1c-debris", "lat": -18.12499228508707, "lon": -91.00916995982216, "alt_km": 504.958908892263, "timestamp": "2025-12-11T05:00:26.592387+00:00", "meta": {"OBJECT_NAME": "FENGYUN 1C DEB", "OBJECT_ID": "1999-025CCN", "EPOCH": "2025-12-01T12:24:56.280384", "MEAN_MOTION": 15.23129084, "ECCENTRICITY": 0.00767187, "INCLINATION": 99.8371, "RA_OF_ASC_NODE": 79.5688, "ARG_OF_PERICENTER": 326.4476, "MEAN_ANOMALY": 33.1906, "EPHEMERIS_TYPE": 0, "CLASSIFICATION_TYPE": "U", "NORAD_CAT_ID": 31680, "ELEMENT_SET_NO": 999, "REV_AT_EPOCH": 1, "BSTAR": 0.0012783451, "MEAN_MOTION_DOT": 0.00032771, "MEAN_MOTION_DDOT": 0}, "tle": {"line1": "1 31680U 99025CCN 25335.51731806  .00032771  00000+0  12783-2 0  9994", "line2": "2 31680  99.8371  79.5688 0076718 326.4476  33.1906 15.23129084    19"}}, "geometry": {"type": "Point", "coordinates": [-91.00916995982216, -18.12499228508707]}}, {"type": "Feature", "properties": {"norad_id": 31685, "name": "FENGYUN 1C DEB", "group": "fengyun-1c-debris", "lat": -74.06916163821417, "lon": 42.049121932158265, "alt_km": 860.955588469832, "timestamp": "2025-12-11T05:00:26.592397+00:00", "meta": {"OBJECT_NAME": "FENGYUN 1C DEB", "OBJECT_ID": "1999-025CCT", "EPOCH": "2025-12-10T20:51:10.617696", "MEAN_MOTION": 14.09657081, "ECCENTRICITY": 0.0015814, "INCLINATION": 98.7312, "RA_OF_ASC_NODE": 9.146, "ARG_OF_PERICENTER": 231.2103, "MEAN_ANOMALY": 128.7656, "EPHEMERIS_TYPE": 0, "CLASSIFICATION_TYPE": "U", "NORAD_CAT_ID": 31685, "ELEMENT_SET_NO": 999, "REV_AT_EPOCH": 95063, "BSTAR": 0.00016828051, "MEAN_MOTION_DOT": 2.53e-06, "MEAN_MOTION_DDOT": 0}, "tle": {"line1": "1 31685U 99025CCT 25344.86887289  .00000253  00000+0  16828-3 0  9999", "line2": "2 31685  98.7312   9.1460 0015814 231.2103 128.7656 14.09657081950635"}}, "geometry": {"type": "Point", "coordinates": [42.049121932158265, -74.06916163821417]}}, {"type": "Feature", "properties": {"norad_id": 31686, "name": "FENGYUN 1C DEB", "group": "fengyun-1c-debris", "lat": 64.53585644894937, "lon": 39.27290366823968, "alt_km": 471.5165583777962, "timestamp": "2025-12-11T05:00:26.592408+00:00", "meta": {"OBJECT_NAME": "FENGYUN 1C DEB", "OBJECT_ID": "1999-025CCU", "EPOCH": "2025-12-10T10:46:20.455104", "MEAN_MOTION": 14.72037597, "ECCENTRICITY": 0.02837956, "INCLINATION": 98.1518, "RA_OF_ASC_NODE": 56.0281, "ARG_OF_PERICENTER": 96.7417, "MEAN_ANOMALY": 266.6169, "EPHEMERIS_TYPE": 0, "CLASSIFICATION_TYPE": "U", "NORAD_CAT_ID": 31686, "ELEMENT_SET_NO": 999, "REV_AT_EPOCH": 97785, "BSTAR": 0.0010577833, "MEAN_MOTION_DOT": 0.00012579, "MEAN_MOTION_DDOT": 0}, "tle": {"line1": "1 31686U 99025CCU 25344.44884786  .00012579  00000+0  10578-2 0  9992", "line2": "2 31686  98.1518  56.0281 0283795  96.7417 266.6169 14.72037597977855"}}, "geometry": {"type": "Point", "coordinates": [39.27290366823968, 64.53585644894937]}}, {"type": "Feature", "properties": {"norad_id": 31688, "name": "FENGYUN 1C DEB", "group": "fengyun-1c-debris", "lat": 80.93157637418035, "lon": -42.21206173966604, "alt_km": 847.9430656844443, "timestamp": "2025-12-11T05:00:26.592417+00:00", "meta": {"OBJECT_NAME": "FENGYUN 1C DEB", "OBJECT_ID": "1999-025CCW", "EPOCH": "2025-12-10T21:44:07.649376", "MEAN_MOTION": 14.02315718, "ECCENTRICITY": 0.00754107, "INCLINATION": 98.9654, "RA_OF_ASC_NODE": 39.0109, "ARG_OF_PERICENTER": 146.1871, "MEAN_ANOMALY": 214.4137, "EPHEMERIS_TYPE": 0, "CLASSIFICATION_TYPE": "U", "NORAD_CAT_ID": 31688, "ELEMENT_SET_NO": 999, "REV_AT_EPOCH": 95252, "BSTAR": 1.0330959e-05, "MEAN_MOTION_DOT": -2.7e-07, "MEAN_MOTION_DDOT": 0}, "tle": {"line1": "1 31688U 99025CCW 25344.90564409 -.00000027  00000+0  10331-4 0  9997", "line2": "2 31688  98.9654  39.0109 0075410 146.1871 214.4137 14.02315718952523"}}, "geometry": {"type": "Point", "coordinates": [-42.21206173966604, 80.93157637418035]}}, {"type": "Feature", "properties": {"norad_id": 31691, "name": "FENGYUN 1C DEB", "group": "fengyun-1c-debris", "lat": 35.21224983398968, "lon": -102.04605617051827, "alt_km": 809.0860800544824, "timestamp": "2025-12-11T05:00:26.592427+00:00", "meta": {"OBJECT_NAME": "FENGYUN 1C DEB", "OBJECT_ID": "1999-025CCZ", "EPOCH": "2025-12-09T11:54:52.287264", "MEAN_MOTION": 14.26085978, "ECCENTRICITY": 0.00609, "INCLINATION": 98.8812, "RA_OF_ASC_NODE": 69.8833, "ARG_OF_PERICENTER": 248.3823, "MEAN_ANOMALY": 111.0861, "EPHEMERIS_TYPE": 0, "CLASSIFICATION_TYPE": "U", "NORAD_CAT_ID": 31691, "ELEMENT_SET_NO": 999, "REV_AT_EPOCH": 64065, "BSTAR": 0.0034527786, "MEAN_MOTION_DOT": 8.379e-05, "MEAN_MOTION_DDOT": 0}, "tle": {"line1": "1 31691U 99025CCZ 25343.49643851  .00008379  00000+0  34528-2 0  9992", "line2": "2 31691  98.8812  69.8833 0060900 248.3823 111.0861 14.26085978640659"}}, "geometry": {"type": "Point", "coordinates": [-102.04605617051827, 35.21224983398968]}}, {"type": "Feature", "properties": {"norad_id": 31692, "name": "FENGYUN 1C DEB", "group": "fengyun-1c-debris", "lat": 65.95035018949491, "lon": -177.12415879540055, "alt_km": 767.5917535593744, "timestamp": "2025-12-11T05:00:26.592437+00:00", "meta": {"OBJECT_NAME": "FENGYUN 1C DEB", "OBJECT_ID": "1999-025CDA", "EPOCH": "2025-12-07T17:31:27.775776", "MEAN_MOTION": 14.18267139, "ECCENTRICITY": 0.00878688, "INCLINATION": 99.1756, "RA_OF_ASC_NODE": 338.0465, "ARG_OF_PERICENTER": 95.95, "MEAN_ANOMALY": 265.1697, "EPHEMERIS_TYPE": 0, "CLASSIFICATION_TYPE": "U", "NORAD_CAT_ID": 31692, "ELEMENT_SET_NO": 999, "REV_AT_EPOCH": 58138, "BSTAR": 0.0042420396, "MEAN_MOTION_DOT": 9.035e-05, "MEAN_MOTION_DDOT": 0}, "tle": {"line1": "1 31692U 99025CDA 25341.73018259  .00009035  00000+0  42420-2 0  9996", "line2": "2 31692  99.1756 338.0465 0087868  95.9500 265.1697 14.18267139581387"}}, "geometry": {"type": "Point", "coordinates": [-177.12415879540055, 65.95035018949491]}}, {"type": "Feature", "properties": {"norad_id": 31695, "name": "FENGYUN 1C DEB", "group": "fengyun-1c-debris", "lat": -58.094642944555936, "lon": 82.99478704193181, "alt_km": 607.8487759346517, "timestamp": "2025-12-11T05:00:26.592447+00:00", "meta": {"OBJECT_NAME": "FENGYUN 1C DEB", "OBJECT_ID": "1999-025CDD", "EPOCH": "2025-12-10T01:34:16.603680", "MEAN_MOTION": 14.73548742, "ECCENTRICITY": 0.01751817, "INCLINATION": 98.2646, "RA_OF_ASC_NODE": 68.3287, "ARG_OF_PERICENTER": 237.0971, "MEAN_ANOMALY": 121.3278, "EPHEMERIS_TYPE": 0, "CLASSIFICATION_TYPE": "U", "NORAD_CAT_ID": 31695, "ELEMENT_SET_NO": 999, "REV_AT_EPOCH": 65932, "BSTAR": 0.0024110089, "MEAN_MOTION_DOT": 0.00020039, "MEAN_MOTION_DDOT": 0}, "tle": {"line1": "1 31695U 99025CDD 25344.06546995  .00020039  00000+0  24110-2 0  9994", "line2": "2 31695  98.2646  68.3287 0175181 237.0971 121.3278 14.73548742659321"}}, "geometry": {"type": "Point", "coordinates": [82.99478704193181, -58.094642944555936]}}, {"type": "Feature", "properties": {"norad_id": 31714, "name": "FENGYUN 1C DEB", "group": "fengyun-1c-debris", "lat": -51.35260299935899, "lon": -103.34919102071028, "alt_km": 598.5511963644358, "timestamp": "2025-12-11T05:00:26.592458+00:00", "meta": {"OBJECT_NAME": "FENGYUN 1C DEB", "OBJECT_ID": "1999-025CDM", "EPOCH": "2025-12-10T16:27:41.222592", "MEAN_MOTION": 14.87639939, "ECCENTRICITY": 0.00191611, "INCLINATION": 99.0312, "RA_OF_ASC_NODE": 244.5837, "ARG_OF_PERICENTER": 310.3311, "MEAN_ANOMALY": 79.4873, "EPHEMERIS_TYPE": 0, "CLASSIFICATION_TYPE": "U", "NORAD_CAT_ID": 31714, "ELEMENT_SET_NO": 999, "REV_AT_EPOCH": 96019, "BSTAR": 0.010018068, "MEAN_MOTION_DOT": 0.00092568, "MEAN_MOTION_DDOT": 0}, "tle": {"line1": "1 31714U 99025CDM 25344.68589378  .00092568  00000+0  10018-1 0  9993", "line2": "2 31714  99.0312 244.5837 0019161 310.3311  79.4873 14.87639939960197"}}, "geometry": {"type": "Point", "coordinates": [-103.34919102071028, -51.35260299935899]}}]}